OBJECT_NAME,OBJECT_ID,EPOCH,MEAN_MOTION,ECCENTRICITY,INCLINATION,RA_OF_ASC_NODE,ARG_OF_PERICENTER,MEAN_ANOMALY,EPHEMERIS_TYPE,CLASSIFICATION_TYPE,NORAD_CAT_ID,ELEMENT_SET_NO,REV_AT_EPOCH,BSTAR,MEAN_MOTION_DOT,MEAN_MOTION_DDOT
ONEWEB-0309,2021-075W,2026-06-15T13:41:14.271648,13.17649060,.0001944,87.9133,6.1845,102.5771,257.5578,0,U,49095,999,23336,.23759978E-3,.105E-5,0
ONEWEB-0310,2021-075X,2026-06-15T13:24:04.628160,13.12445421,.0001797,87.8939,351.0045,90.8332,269.3002,0,U,49096,999,23497,.17654999E-4,.19E-6,0
ONEWEB-0311,2021-075Y,2026-06-15T13:50:58.118784,13.17650482,.00022644,87.9134,6.1829,82.2846,277.8543,0,U,49097,999,23341,.20318392E-3,.92E-6,0
ONEWEB-0312,2021-075Z,2026-06-15T14:12:51.264000,13.17652763,.00021696,87.9132,6.1908,91.8861,268.2519,0,U,49098,999,23339,.76613788E-4,.43E-6,0
ONEWEB-0313,2021-075AA,2026-06-15T14:19:55.151904,13.17648549,.00019867,87.9129,6.1956,86.6602,273.4757,0,U,49099,999,23338,.12529573E-3,.62E-6,0
ONEWEB-0314,2021-075AB,2026-06-15T13:31:32.086848,13.17649294,.00022207,87.9142,6.1744,91.5267,268.6119,0,U,49100,999,23335,.12381045E-3,.61E-6,0
ONEWEB-0315,2021-075AC,2026-06-15T12:45:02.823552,13.12442910,.00020799,87.8948,350.9735,82.1040,278.0324,0,U,49101,999,23495,-.96611213E-3,-.335E-5,0
ONEWEB-0316,2021-075AD,2026-06-15T11:44:55.713408,13.18686945,.00019169,87.9162,335.7937,91.8536,268.2816,0,U,49102,999,23698,.1963099E-4,.21E-6,0
ONEWEB-0317,2021-075AE,2026-06-15T12:49:55.570080,13.12443582,.00015094,87.8948,350.9966,113.7138,246.4149,0,U,49103,999,23497,-.82930204E-3,-.286E-5,0
ONEWEB-0318,2021-075AF,2026-06-15T11:40:04.564416,13.18686482,.00020321,87.9169,335.7960,86.8802,273.2563,0,U,49104,999,23694,.15054602E-3,.72E-6,0
ONEWEB-0319,2021-075AG,2026-06-15T13:53:23.510976,13.17649343,.00022401,87.9132,6.1880,77.1214,283.0168,0,U,49105,999,23339,.61933671E-4,.37E-6,0
ONEWEB-0323,2021-075AH,2026-06-15T12:23:05.966592,13.12442779,.00023058,87.8948,350.9817,82.7521,277.3869,0,U,49106,999,23433,.54394127E-3,.208E-5,0
ONEWEB-0329,2021-075AJ,2026-06-15T14:05:32.577504,13.17649031,.0002025,87.9133,6.1872,89.0284,271.1080,0,U,49107,999,23337,.76480321E-4,.43E-6,0
ONEWEB-0330,2021-075AK,2026-06-15T14:39:46.740960,13.17648897,.00020277,87.9136,6.2027,93.5150,266.6213,0,U,49108,999,23341,.14109793E-3,.68E-6,0
ONEWEB-0292,2021-083A,2026-06-15T11:45:06.876288,13.13471769,.0001936,87.8946,320.5764,91.7648,268.3703,0,U,49186,999,23070,.11575962E-2,.436E-5,0
ONEWEB-0303,2021-083B,2026-06-15T11:35:13.081056,13.18686996,.00019883,87.9164,335.7954,89.4188,270.7172,0,U,49187,999,22975,.58406384E-4,.36E-6,0
ONEWEB-0306,2021-083C,2026-06-15T11:20:38.569632,13.18687160,.00017259,87.9169,335.7851,98.9349,261.1978,0,U,49188,999,22979,.9985225E-4,.52E-6,0
ONEWEB-0307,2021-083D,2026-06-15T11:36:34.314336,13.13471119,.00019744,87.8948,320.5745,95.0814,265.0540,0,U,49189,999,23070,.72597908E-3,.278E-5,0
ONEWEB-0320,2021-083E,2026-06-15T11:49:46.416576,13.18685880,.00018172,87.9159,335.7994,94.0875,266.0465,0,U,49190,999,22975,.32526335E-4,.26E-6,0
ONEWEB-0321,2021-083F,2026-06-15T12:49:31.961280,13.20772819,.00018007,87.9192,274.7641,107.1034,253.0296,0,U,49191,999,23661,.99616541E-4,.53E-6,0
ONEWEB-0322,2021-083G,2026-06-15T11:30:26.646048,13.13468733,.00013724,87.8950,320.5758,99.9248,260.2036,0,U,49192,999,23069,.37211153E-3,.149E-5,0
ONEWEB-0324,2021-083H,2026-06-15T11:10:55.456032,13.18685197,.00019486,87.9170,335.7919,97.4924,262.6430,0,U,49193,999,22977,.49733811E-4,.33E-6,0
ONEWEB-0325,2021-083J,2026-06-15T13:05:02.940288,13.18686253,.00017962,87.9160,335.7847,90.1747,269.9591,0,U,49194,999,22979,.11530121E-3,.58E-6,0
ONEWEB-0326,2021-083K,2026-06-15T11:37:50.507040,13.18685314,.00020207,87.9169,335.7944,85.8807,274.2556,0,U,49195,999,22977,-.18296985E-4,.6E-7,0
ONEWEB-0327,2021-083L,2026-06-15T13:26:41.951328,13.18685562,.00019733,87.9161,335.7837,81.1757,278.9599,0,U,49196,999,22980,.83493545E-4,.46E-6,0
ONEWEB-0328,2021-083M,2026-06-15T11:15:50.581152,13.13470760,.0001943,87.8961,320.5508,99.1753,260.9596,0,U,49197,999,23067,-.29647978E-3,-.96E-6,0
ONEWEB-0331,2021-083N,2026-06-15T11:27:55.350144,13.18687226,.00021217,87.9169,335.7895,86.4133,273.7242,0,U,49198,999,22978,.14724291E-3,.71E-6,0
ONEWEB-0333,2021-083P,2026-06-15T09:18:49.814784,13.13470703,.00018404,87.8948,320.5934,94.7731,265.3608,0,U,49199,999,23067,-.57801818E-3,-.198E-5,0
ONEWEB-0334,2021-083Q,2026-06-15T13:13:25.332096,13.21245773,.00013312,87.9191,274.7725,129.8860,230.2391,0,U,49200,999,23657,.88818937E-2,.3651E-4,0
ONEWEB-0335,2021-083R,2026-06-15T11:01:12.887616,13.13471207,.00019892,87.8953,320.5764,93.1202,267.0155,0,U,49201,999,23069,-.59223434E-3,-.204E-5,0
