ONEWEB-0309             
1 49095U 21075W   26166.57030407  .00000105  00000+0  23760-3 0  9995
2 49095  87.9133   6.1845 0001944 102.5771 257.5578 13.17649060233368
ONEWEB-0310             
1 49096U 21075X   26166.55838690  .00000019  00000+0  17655-4 0  9995
2 49096  87.8939 351.0045 0001797  90.8332 269.3002 13.12445421234975
ONEWEB-0311             
1 49097U 21075Y   26166.57706156  .00000092  00000+0  20318-3 0  9999
2 49097  87.9134   6.1829 0002264  82.2846 277.8543 13.17650482233419
ONEWEB-0312             
1 49098U 21075Z   26166.59226000  .00000043  00000+0  76614-4 0  9994
2 49098  87.9132   6.1908 0002169  91.8861 268.2519 13.17652763233391
ONEWEB-0313             
1 49099U 21075AA  26166.59716611  .00000062  00000+0  12530-3 0  9994
2 49099  87.9129   6.1956 0001986  86.6602 273.4757 13.17648549233380
ONEWEB-0314             
1 49100U 21075AB  26166.56356582  .00000061  00000+0  12381-3 0  9994
2 49100  87.9142   6.1744 0002220  91.5267 268.6119 13.17649294233350
ONEWEB-0315             
1 49101U 21075AC  26166.53128268 -.00000335  00000+0 -96611-3 0  9994
2 49101  87.8948 350.9735 0002079  82.1040 278.0324 13.12442910234952
ONEWEB-0316             
1 49102U 21075AD  26166.48953372  .00000021  00000+0  19631-4 0  9999
2 49102  87.9162 335.7937 0001916  91.8536 268.2816 13.18686945236989
ONEWEB-0317             
1 49103U 21075AE  26166.53467095 -.00000286  00000+0 -82930-3 0  9994
2 49103  87.8948 350.9966 0001509 113.7138 246.4149 13.12443582234978
ONEWEB-0318             
1 49104U 21075AF  26166.48616394  .00000072  00000+0  15055-3 0  9992
2 49104  87.9169 335.7960 0002032  86.8802 273.2563 13.18686482236941
ONEWEB-0319             
1 49105U 21075AG  26166.57874434  .00000037  00000+0  61934-4 0  9993
2 49105  87.9132   6.1880 0002240  77.1214 283.0168 13.17649343233393
ONEWEB-0323             
1 49106U 21075AH  26166.51604128  .00000208  00000+0  54394-3 0  9990
2 49106  87.8948 350.9817 0002305  82.7521 277.3869 13.12442779234331
ONEWEB-0329             
1 49107U 21075AJ  26166.58718261  .00000043  00000+0  76480-4 0  9990
2 49107  87.9133   6.1872 0002025  89.0284 271.1080 13.17649031233370
ONEWEB-0330             
1 49108U 21075AK  26166.61095765  .00000068  00000+0  14110-3 0  9990
2 49108  87.9136   6.2027 0002027  93.5150 266.6213 13.17648897233412
ONEWEB-0292             
1 49186U 21083A   26166.48966292  .00000436  00000+0  11576-2 0  9993
2 49186  87.8946 320.5764 0001936  91.7648 268.3703 13.13471769230706
ONEWEB-0303             
1 49187U 21083B   26166.48279029  .00000036  00000+0  58406-4 0  9990
2 49187  87.9164 335.7954 0001988  89.4188 270.7172 13.18686996229754
ONEWEB-0306             
1 49188U 21083C   26166.47266863  .00000052  00000+0  99852-4 0  9990
2 49188  87.9169 335.7851 0001725  98.9349 261.1978 13.18687160229795
ONEWEB-0307             
1 49189U 21083D   26166.48373049  .00000278  00000+0  72598-3 0  9994
2 49189  87.8948 320.5745 0001974  95.0814 265.0540 13.13471119230706
ONEWEB-0320             
1 49190U 21083E   26166.49289834  .00000026  00000+0  32526-4 0  9994
2 49190  87.9159 335.7994 0001817  94.0875 266.0465 13.18685880229756
ONEWEB-0321             
1 49191U 21083F   26166.53439770  .00000053  00000+0  99617-4 0  9990
2 49191  87.9192 274.7641 0001800 107.1034 253.0296 13.20772819236613
ONEWEB-0322             
1 49192U 21083G   26166.47947507  .00000149  00000+0  37211-3 0  9993
2 49192  87.8950 320.5758 0001372  99.9248 260.2036 13.13468733230696
ONEWEB-0324             
1 49193U 21083H   26166.46591963  .00000033  00000+0  49734-4 0  9990
2 49193  87.9170 335.7919 0001948  97.4924 262.6430 13.18685197229773
ONEWEB-0325             
1 49194U 21083J   26166.54517292  .00000058  00000+0  11530-3 0  9992
2 49194  87.9160 335.7847 0001796  90.1747 269.9591 13.18686253229791
ONEWEB-0326             
1 49195U 21083K   26166.48461235  .00000006  00000+0 -18297-4 0  9993
2 49195  87.9169 335.7944 0002020  85.8807 274.2556 13.18685314229773
ONEWEB-0327             
1 49196U 21083L   26166.56020777  .00000046  00000+0  83494-4 0  9999
2 49196  87.9161 335.7837 0001973  81.1757 278.9599 13.18685562229803
ONEWEB-0328             
1 49197U 21083M   26166.46933543 -.00000096  00000+0 -29648-3 0  9990
2 49197  87.8961 320.5508 0001943  99.1753 260.9596 13.13470760230672
ONEWEB-0331             
1 49198U 21083N   26166.47772396  .00000071  00000+0  14724-3 0  9999
2 49198  87.9169 335.7895 0002121  86.4133 273.7242 13.18687226229783
ONEWEB-0333             
1 49199U 21083P   26166.38807656 -.00000198  00000+0 -57802-3 0  9994
2 49199  87.8948 320.5934 0001840  94.7731 265.3608 13.13470703230675
ONEWEB-0334             
1 49200U 21083Q   26166.55098764  .00003651  00000+0  88819-2 0  9994
2 49200  87.9191 274.7725 0001331 129.8860 230.2391 13.21245773236576
ONEWEB-0335             
1 49201U 21083R   26166.45917694 -.00000204  00000+0 -59223-3 0  9997
2 49201  87.8953 320.5764 0001989  93.1202 267.0155 13.13471207230694
